start=new Date('2022-03-06T00:00:00.000Z').valueOf();
sats=[{"REV_AT_EPOCH":"12909","BSTAR":"0.00014829000000","MEAN_ELEMENT_THEORY":"SGP4","CENTER_NAME":"EARTH","TIME_SYSTEM":"UTC","OBJECT_ID":"2019-074G","ECCENTRICITY":"0.00015950","TLE_LINE1":"1 44719U 19074G   22064.88317699  .00001928  00000-0  14829-3 0  9998","ELEMENT_SET_NO":"999","OBJECT_TYPE":"PAYLOAD","PERIOD":"95.592","SITE":"AFETR","SEMIMAJOR_AXIS":"6925.332","RCS_SIZE":"LARGE","MEAN_MOTION_DOT":"0.00001928","OBJECT_NAME":"STARLINK-1013","PERIAPSIS":"546.092","DECAY_DATE":null,"MEAN_MOTION":"15.06405421","ARG_OF_PERICENTER":"63.6905","CLASSIFICATION_TYPE":"U","GP_ID":"198015065","APOAPSIS":"548.302","COUNTRY_CODE":"US","INCLINATION":"53.0554","MEAN_ANOMALY":"296.4248","EPOCH":"2022-03-05T21:11:46.491936","TLE_LINE2":"2 44719  53.0554 282.3934 0001595  63.6905 296.4248 15.06405421129093","RA_OF_ASC_NODE":"282.3934","EPHEMERIS_TYPE":"0","MEAN_MOTION_DDOT":"0.0000000000000","REF_FRAME":"TEME","FILE":"3346512","NORAD_CAT_ID":"44719","LAUNCH_DATE":"2019-11-11"},{"PERIAPSIS":"546.197","RCS_SIZE":"LARGE","MEAN_MOTION_DOT":"0.00001369","OBJECT_NAME":"STARLINK-1014","CLASSIFICATION_TYPE":"U","APOAPSIS":"548.251","GP_ID":"198015315","COUNTRY_CODE":"US","DECAY_DATE":null,"ARG_OF_PERICENTER":"66.3403","MEAN_MOTION":"15.06396746","EPOCH":"2022-03-05T21:38:18.620160","TLE_LINE2":"2 44720  53.0542 282.3031 0001483  66.3403 293.7741 15.06396746127971","EPHEMERIS_TYPE":"0","RA_OF_ASC_NODE":"282.3031","MEAN_ANOMALY":"293.7741","INCLINATION":"53.0542","REF_FRAME":"TEME","FILE":"3346512","NORAD_CAT_ID":"44720","LAUNCH_DATE":"2019-11-11","MEAN_MOTION_DDOT":"0.0000000000000","BSTAR":"0.00011080000000","MEAN_ELEMENT_THEORY":"SGP4","REV_AT_EPOCH":"12797","CENTER_NAME":"EARTH","TIME_SYSTEM":"UTC","OBJECT_ID":"2019-074H","ECCENTRICITY":"0.00014830","ELEMENT_SET_NO":"999","TLE_LINE1":"1 44720U 19074H   22064.90160440  .00001369  00000-0  11080-3 0  9998","SITE":"AFETR","SEMIMAJOR_AXIS":"6925.359","OBJECT_TYPE":"PAYLOAD","PERIOD":"95.592"},{"DECAY_DATE":null,"ARG_OF_PERICENTER":"69.5969","MEAN_MOTION":"15.06402196","CLASSIFICATION_TYPE":"U","GP_ID":"198016066","APOAPSIS":"548.279","COUNTRY_CODE":"US","OBJECT_NAME":"STARLINK-1015","RCS_SIZE":"LARGE","MEAN_MOTION_DOT":"0.00001029","PERIAPSIS":"546.135","MEAN_MOTION_DDOT":"0.0000000000000","FILE":"3346512","REF_FRAME":"TEME","LAUNCH_DATE":"2019-11-11","NORAD_CAT_ID":"44721","MEAN_ANOMALY":"290.5186","INCLINATION":"53.0547","EPOCH":"2022-03-05T21:22:22.951488","EPHEMERIS_TYPE":"0","TLE_LINE2":"2 44721  53.0547 282.3523 0001548  69.5969 290.5186 15.06402196127961","RA_OF_ASC_NODE":"282.3523","OBJECT_ID":"2019-074J","ECCENTRICITY":"0.00015480","BSTAR":"0.00008798500000","REV_AT_EPOCH":"12796","MEAN_ELEMENT_THEORY":"SGP4","TIME_SYSTEM":"UTC","CENTER_NAME":"EARTH","OBJECT_TYPE":"PAYLOAD","PERIOD":"95.592","SEMIMAJOR_AXIS":"6925.342","SITE":"AFETR","TLE_LINE1":"1 44721U 19074J   22064.89054342  .00001029  00000-0  87985-4 0  9991","ELEMENT_SET_NO":"999"},{"EPOCH":"2022-03-05T21:27:41.592096","EPHEMERIS_TYPE":"0","TLE_LINE2":"2 44722  53.0550 282.3395 0001395  87.5356 272.5792 15.06399759127977","RA_OF_ASC_NODE":"282.3395","MEAN_ANOMALY":"272.5792","INCLINATION":"53.0550","REF_FRAME":"TEME","FILE":"3346512","NORAD_CAT_ID":"44722","LAUNCH_DATE":"2019-11-11","MEAN_MOTION_DDOT":"0.0000000000000","PERIAPSIS":"546.248","RCS_SIZE":"LARGE","MEAN_MOTION_DOT":"-0.00000495","OBJECT_NAME":"STARLINK-1016","CLASSIFICATION_TYPE":"U","GP_ID":"198016317","COUNTRY_CODE":"US","APOAPSIS":"548.180","DECAY_DATE":null,"MEAN_MOTION":"15.06399759","ARG_OF_PERICENTER":"87.5356","ELEMENT_SET_NO":"999","TLE_LINE1":"1 44722U 19074K   22064.89423139 -.00000495  00000-0 -14338-4 0  9996","SEMIMAJOR_AXIS":"6925.349","SITE":"AFETR","OBJECT_TYPE":"PAYLOAD","PERIOD":"95.592","MEAN_ELEMENT_THEORY":"SGP4","BSTAR":"-0.00001433800000","REV_AT_EPOCH":"12797","TIME_SYSTEM":"UTC","CENTER_NAME":"EARTH","OBJECT_ID":"2019-074K","ECCENTRICITY":"0.00013950"},{"INCLINATION":"53.0521","MEAN_ANOMALY":"287.9819","TLE_LINE2":"2 44723  53.0521 282.2875 0001523  72.1336 287.9819 15.06412772127970","RA_OF_ASC_NODE":"282.2875","EPHEMERIS_TYPE":"0","EPOCH":"2022-03-05T21:48:55.964448","MEAN_MOTION_DDOT":"0.0000000000000","NORAD_CAT_ID":"44723","LAUNCH_DATE":"2019-11-11","FILE":"3346512","REF_FRAME":"TEME","RCS_SIZE":"LARGE","MEAN_MOTION_DOT":"0.00008050","OBJECT_NAME":"STARLINK-1017","PERIAPSIS":"546.120","ARG_OF_PERICENTER":"72.1336","MEAN_MOTION":"15.06412772","DECAY_DATE":null,"COUNTRY_CODE":"US","GP_ID":"198015565","APOAPSIS":"548.229","CLASSIFICATION_TYPE":"U","TLE_LINE1":"1 44723U 19074L   22064.90898107  .00008050  00000-0  55850-3 0  9996","ELEMENT_SET_NO":"999","PERIOD":"95.591","OBJECT_TYPE":"PAYLOAD","SITE":"AFETR","SEMIMAJOR_AXIS":"6925.309","CENTER_NAME":"EARTH","TIME_SYSTEM":"UTC","MEAN_ELEMENT_THEORY":"SGP4","BSTAR":"0.00055850000000","REV_AT_EPOCH":"12797","ECCENTRICITY":"0.00015230","OBJECT_ID":"2019-074L"},{"GP_ID":"198015815","APOAPSIS":"548.256","COUNTRY_CODE":"US","CLASSIFICATION_TYPE":"U","MEAN_MOTION":"15.06413177","ARG_OF_PERICENTER":"63.7482","DECAY_DATE":null,"PERIAPSIS":"546.091","OBJECT_NAME":"STARLINK-1019","RCS_SIZE":"LARGE","MEAN_MOTION_DOT":"0.00001592","LAUNCH_DATE":"2019-11-11","NORAD_CAT_ID":"44724","FILE":"3346512","REF_FRAME":"TEME","MEAN_MOTION_DDOT":"0.0000000000000","TLE_LINE2":"2 44724  53.0549 282.4453 0001563  63.7482 296.3667 15.06413177127961","EPHEMERIS_TYPE":"0","RA_OF_ASC_NODE":"282.4453","EPOCH":"2022-03-05T20:55:50.346336","MEAN_ANOMALY":"296.3667","INCLINATION":"53.0549","ECCENTRICITY":"0.00015630","OBJECT_ID":"2019-074M","CENTER_NAME":"EARTH","TIME_SYSTEM":"UTC","REV_AT_EPOCH":"12796","BSTAR":"0.00012569000000","MEAN_ELEMENT_THEORY":"SGP4","SITE":"AFETR","SEMIMAJOR_AXIS":"6925.308","PERIOD":"95.591","OBJECT_TYPE":"PAYLOAD","ELEMENT_SET_NO":"999","TLE_LINE1":"1 44724U 19074M   22064.87211049  .00001592  00000-0  12569-3 0  9991"},{"MEAN_MOTION_DDOT":"0.0000000000000","LAUNCH_DATE":"2019-11-11","NORAD_CAT_ID":"44725","REF_FRAME":"TEME","FILE":"3346512","INCLINATION":"53.0538","MEAN_ANOMALY":"290.1884","EPHEMERIS_TYPE":"0","TLE_LINE2":"2 44725  53.0538 302.1087 0001551  69.9272 290.1884 15.06415471127697","RA_OF_ASC_NODE":"302.1087","EPOCH":"2022-03-05T22:39:20.688480","MEAN_MOTION":"15.06415471","ARG_OF_PERICENTER":"69.9272","DECAY_DATE":null,"COUNTRY_CODE":"US","GP_ID":"198016566","APOAPSIS":"548.240","CLASSIFICATION_TYPE":"U","MEAN_MOTION_DOT":"0.00007113","RCS_SIZE":"LARGE","OBJECT_NAME":"STARLINK-1020","PERIAPSIS":"546.092","PERIOD":"95.591","OBJECT_TYPE":"PAYLOAD","SEMIMAJOR_AXIS":"6925.301","SITE":"AFETR","TLE_LINE1":"1 44725U 19074N   22064.94398945  .00007113  00000-0  49573-3 0  9991","ELEMENT_SET_NO":"999","OBJECT_ID":"2019-074N","ECCENTRICITY":"0.00015510","TIME_SYSTEM":"UTC","CENTER_NAME":"EARTH","BSTAR":"0.00049573000000","MEAN_ELEMENT_THEORY":"SGP4","REV_AT_EPOCH":"12769"},{"REF_FRAME":"TEME","FILE":"3346512","LAUNCH_DATE":"2019-11-11","NORAD_CAT_ID":"44726","MEAN_MOTION_DDOT":"0.0000000000000","EPOCH":"2022-03-05T20:50:32.430624","TLE_LINE2":"2 44726  53.0529 282.4673 0001505  71.3752 288.7400 15.06407521127962","RA_OF_ASC_NODE":"282.4673","EPHEMERIS_TYPE":"0","MEAN_ANOMALY":"288.7400","INCLINATION":"53.0529","CLASSIFICATION_TYPE":"U","GP_ID":"198016817","APOAPSIS":"548.233","COUNTRY_CODE":"US","DECAY_DATE":null,"MEAN_MOTION":"15.06407521","ARG_OF_PERICENTER":"71.3752","PERIAPSIS":"546.148","MEAN_MOTION_DOT":"0.00000622","RCS_SIZE":"LARGE","OBJECT_NAME":"STARLINK-1021","SEMIMAJOR_AXIS":"6925.326","SITE":"AFETR","OBJECT_TYPE":"PAYLOAD","PERIOD":"95.592","ELEMENT_SET_NO":"999","TLE_LINE1":"1 44726U 19074P   22064.86843091  .00000622  00000-0  60659-4 0  9997","ECCENTRICITY":"0.00015050","OBJECT_ID":"2019-074P","REV_AT_EPOCH":"12796","BSTAR":"0.00006065900000","MEAN_ELEMENT_THEORY":"SGP4","TIME_SYSTEM":"UTC","CENTER_NAME":"EARTH"},{"NORAD_CAT_ID":"44727","LAUNCH_DATE":"2019-11-11","FILE":"3346512","REF_FRAME":"TEME","MEAN_MOTION_DDOT":"0.0000000000000","TLE_LINE2":"2 44727  53.0551 322.0036 0001676  55.0932 305.0214 15.06401216127433","RA_OF_ASC_NODE":"322.0036","EPHEMERIS_TYPE":"0","EPOCH":"2022-03-05T23:17:47.654016","MEAN_ANOMALY":"305.0214","INCLINATION":"53.0551","COUNTRY_CODE":"US","GP_ID":"198015066","APOAPSIS":"548.371","CLASSIFICATION_TYPE":"U","MEAN_MOTION":"15.06401216","ARG_OF_PERICENTER":"55.0932","DECAY_DATE":null,"PERIAPSIS":"546.049","OBJECT_NAME":"STARLINK-1022","RCS_SIZE":"LARGE","MEAN_MOTION_DOT":"0.00000591","SEMIMAJOR_AXIS":"6925.345","SITE":"AFETR","PERIOD":"95.592","OBJECT_TYPE":"PAYLOAD","ELEMENT_SET_NO":"999","TLE_LINE1":"1 44727U 19074Q   22064.97069044  .00000591  00000-0  58602-4 0  9998","OBJECT_ID":"2019-074Q","ECCENTRICITY":"0.00016760","TIME_SYSTEM":"UTC","CENTER_NAME":"EARTH","MEAN_ELEMENT_THEORY":"SGP4","BSTAR":"0.00005860200000","REV_AT_EPOCH":"12743"},{"TLE_LINE1":"1 44729U 19074S   22064.90027170  .00015095  00000-0  93362-3 0  9993","ELEMENT_SET_NO":"999","OBJECT_TYPE":"PAYLOAD","PERIOD":"95.362","SITE":"AFETR","SEMIMAJOR_AXIS":"6914.247","MEAN_ELEMENT_THEORY":"SGP4","BSTAR":"0.00093362000000","REV_AT_EPOCH":"12774","CENTER_NAME":"EARTH","TIME_SYSTEM":"UTC","ECCENTRICITY":"0.00013330","OBJECT_ID":"2019-074S","MEAN_ANOMALY":"296.7721","INCLINATION":"53.0006","EPOCH":"2022-03-05T21:36:23.474880","TLE_LINE2":"2 44729  53.0006 296.4409 0001333  63.3406 296.7721 15.10029335127742","RA_OF_ASC_NODE":"296.4409","EPHEMERIS_TYPE":"0","MEAN_MOTION_DDOT":"0.0000000000000","FILE":"3346512","REF_FRAME":"TEME","NORAD_CAT_ID":"44729","LAUNCH_DATE":"2019-11-11","RCS_SIZE":"LARGE","MEAN_MOTION_DOT":"0.00015095","OBJECT_NAME":"STARLINK-1024","PERIAPSIS":"535.191","DECAY_DATE":null,"ARG_OF_PERICENTER":"63.3406","MEAN_MOTION":"15.10029335","CLASSIFICATION_TYPE":"U","GP_ID":"198015316","APOAPSIS":"537.034","COUNTRY_CODE":"US"}];
